{
  "type": "FeatureCollection",
  "features": [
    {
      "type": "Feature",
      "properties": {
        "norad_id": 25590,
        "name": "COSMOS 2361",
        "group": "musson",
        "lat": 5.145783457143911,
        "lon": -19.31773628881128,
        "alt_km": 999.733446360111,
        "timestamp": "2025-12-18T04:58:34.846026+00:00",
        "meta_object_name": "COSMOS 2361",
        "meta_object_id": "1998-076A",
        "meta_epoch": "2025-12-17T17:33:09.745056",
        "meta_mean_motion": 13.73218124,
        "meta_eccentricity": 0.00301073,
        "meta_inclination": 82.934,
        "meta_ra_of_asc_node": 340.3942,
        "meta_arg_of_pericenter": 251.1312,
        "meta_mean_anomaly": 282.1077,
        "meta_ephemeris_type": 0,
        "meta_classification_type": "U",
        "meta_norad_cat_id": 25590,
        "meta_element_set_no": 999,
        "meta_rev_at_epoch": 35179,
        "meta_bstar": 6.0639335e-05,
        "meta_mean_motion_dot": 7.1e-07,
        "meta_mean_motion_ddot": 0,
        "tle_line1": "1 25590U 98076A   25351.73136279  .00000071  00000+0  60639-4 0  9990",
        "tle_line2": "2 25590  82.9340 340.3942 0030107 251.1312 282.1077 13.73218124351794"
      },
      "geometry": {
        "type": "Point",
        "coordinates": [
          -19.31773628881128,
          5.145783457143911
        ]
      }
    },
    {
      "type": "Feature",
      "properties": {
        "norad_id": 26818,
        "name": "COSMOS 2378",
        "group": "musson",
        "lat": 81.09030870818816,
        "lon": 123.30335304089543,
        "alt_km": 978.9677712491557,
        "timestamp": "2025-12-18T04:58:34.846047+00:00",
        "meta_object_name": "COSMOS 2378",
        "meta_object_id": "2001-023A",
        "meta_epoch": "2025-12-17T13:22:03.961056",
        "meta_mean_motion": 13.74142424,
        "meta_eccentricity": 0.00327007,
        "meta_inclination": 82.9271,
        "meta_ra_of_asc_node": 356.1527,
        "meta_arg_of_pericenter": 191.3164,
        "meta_mean_anomaly": 289.0235,
        "meta_ephemeris_type": 0,
        "meta_classification_type": "U",
        "meta_norad_cat_id": 26818,
        "meta_element_set_no": 999,
        "meta_rev_at_epoch": 22989,
        "meta_bstar": 4.9368059e-05,
        "meta_mean_motion_dot": 6.2e-07,
        "meta_mean_motion_ddot": 0,
        "tle_line1": "1 26818U 01023A   25351.55699029  .00000062  00000+0  49368-4 0  9993",
        "tle_line2": "2 26818  82.9271 356.1527 0032700 191.3164 289.0235 13.74142424229893"
      },
      "geometry": {
        "type": "Point",
        "coordinates": [
          123.30335304089543,
          81.09030870818816
        ]
      }
    },
    {
      "type": "Feature",
      "properties": {
        "norad_id": 27436,
        "name": "COSMOS 2389",
        "group": "musson",
        "lat": -37.68941863627464,
        "lon": -62.54851215311779,
        "alt_km": 983.5282386907702,
        "timestamp": "2025-12-18T04:58:34.846060+00:00",
        "meta_object_name": "COSMOS 2389",
        "meta_object_id": "2002-026A",
        "meta_epoch": "2025-12-17T16:01:43.938624",
        "meta_mean_motion": 13.75155201,
        "meta_eccentricity": 0.00474751,
        "meta_inclination": 82.9506,
        "meta_ra_of_asc_node": 303.3364,
        "meta_arg_of_pericenter": 47.3519,
        "meta_mean_anomaly": 126.0454,
        "meta_ephemeris_type": 0,
        "meta_classification_type": "U",
        "meta_norad_cat_id": 27436,
        "meta_element_set_no": 999,
        "meta_rev_at_epoch": 18216,
        "meta_bstar": 3.7759431e-05,
        "meta_mean_motion_dot": 5.2e-07,
        "meta_mean_motion_ddot": 0,
        "tle_line1": "1 27436U 02026A   25351.66786966  .00000052  00000+0  37759-4 0  9993",
        "tle_line2": "2 27436  82.9506 303.3364 0047475  47.3519 126.0454 13.75155201182162"
      },
      "geometry": {
        "type": "Point",
        "coordinates": [
          -62.54851215311779,
          -37.68941863627464
        ]
      }
    },
    {
      "type": "Feature",
      "properties": {
        "norad_id": 27818,
        "name": "COSMOS 2398",
        "group": "musson",
        "lat": -40.873950459871054,
        "lon": 94.81855524663997,
        "alt_km": 1010.9769746073816,
        "timestamp": "2025-12-18T04:58:34.846071+00:00",
        "meta_object_name": "COSMOS 2398",
        "meta_object_id": "2003-023A",
        "meta_epoch": "2025-12-17T21:14:52.360800",
        "meta_mean_motion": 13.72386173,
        "meta_eccentricity": 0.00327318,
        "meta_inclination": 82.9484,
        "meta_ra_of_asc_node": 268.9066,
        "meta_arg_of_pericenter": 98.0305,
        "meta_mean_anomaly": 332.7473,
        "meta_ephemeris_type": 0,
        "meta_classification_type": "U",
        "meta_norad_cat_id": 27818,
        "meta_element_set_no": 999,
        "meta_rev_at_epoch": 12887,
        "meta_bstar": 3.1531562e-05,
        "meta_mean_motion_dot": 4.4e-07,
        "meta_mean_motion_ddot": 0,
        "tle_line1": "1 27818U 03023A   25351.88532825  .00000044  00000+0  31532-4 0  9996",
        "tle_line2": "2 27818  82.9484 268.9066 0032731  98.0305 332.7473 13.72386173128877"
      },
      "geometry": {
        "type": "Point",
        "coordinates": [
          94.81855524663997,
          -40.873950459871054
        ]
      }
    },
    {
      "type": "Feature",
      "properties": {
        "norad_id": 28380,
        "name": "COSMOS 2407",
        "group": "musson",
        "lat": 45.23718672417904,
        "lon": 21.687247008270326,
        "alt_km": 975.1666883143025,
        "timestamp": "2025-12-18T04:58:34.846082+00:00",
        "meta_object_name": "COSMOS 2407",
        "meta_object_id": "2004-028A",
        "meta_epoch": "2025-12-17T21:24:15.009696",
        "meta_mean_motion": 13.76314282,
        "meta_eccentricity": 0.00401196,
        "meta_inclination": 82.9601,
        "meta_ra_of_asc_node": 209.0782,
        "meta_arg_of_pericenter": 40.8294,
        "meta_mean_anomaly": 330.587,
        "meta_ephemeris_type": 0,
        "meta_classification_type": "U",
        "meta_norad_cat_id": 28380,
        "meta_element_set_no": 999,
        "meta_rev_at_epoch": 7494,
        "meta_bstar": 7.1193305e-05,
        "meta_mean_motion_dot": 8.5e-07,
        "meta_mean_motion_ddot": 0,
        "tle_line1": "1 28380U 04028A   25351.89184039  .00000085  00000+0  71193-4 0  9990",
        "tle_line2": "2 28380  82.9601 209.0782 0040119  40.8294 330.5870 13.76314282 74946"
      },
      "geometry": {
        "type": "Point",
        "coordinates": [
          21.687247008270326,
          45.23718672417904
        ]
      }
    },
    {
      "type": "Feature",
      "properties": {
        "norad_id": 28521,
        "name": "COSMOS 2414",
        "group": "musson",
        "lat": -81.56479070864445,
        "lon": 57.100294231651404,
        "alt_km": 966.6991549469194,
        "timestamp": "2025-12-18T04:58:34.846093+00:00",
        "meta_object_name": "COSMOS 2414",
        "meta_object_id": "2005-002A",
        "meta_epoch": "2025-12-17T20:47:02.394816",
        "meta_mean_motion": 13.87903668,
        "meta_eccentricity": 0.00411624,
        "meta_inclination": 82.9488,
        "meta_ra_of_asc_node": 180.7835,
        "meta_arg_of_pericenter": 125.3878,
        "meta_mean_anomaly": 235.1142,
        "meta_ephemeris_type": 0,
        "meta_classification_type": "U",
        "meta_norad_cat_id": 28521,
        "meta_element_set_no": 999,
        "meta_rev_at_epoch": 5866,
        "meta_bstar": 6.1067974e-05,
        "meta_mean_motion_dot": 8.9e-07,
        "meta_mean_motion_ddot": 0,
        "tle_line1": "1 28521U 05002A   25351.86599994  .00000089  00000+0  61068-4 0  9991",
        "tle_line2": "2 28521  82.9488 180.7835 0041162 125.3878 235.1142 13.87903668 58663"
      },
      "geometry": {
        "type": "Point",
        "coordinates": [
          57.100294231651404,
          -81.56479070864445
        ]
      }
    },
    {
      "type": "Feature",
      "properties": {
        "norad_id": 32052,
        "name": "COSMOS 2429",
        "group": "musson",
        "lat": 30.934373923211915,
        "lon": 155.04345590454628,
        "alt_km": 996.1315541433842,
        "timestamp": "2025-12-18T04:58:34.846103+00:00",
        "meta_object_name": "COSMOS 2429",
        "meta_object_id": "2007-038A",
        "meta_epoch": "2025-12-17T16:02:04.029216",
        "meta_mean_motion": 13.75149894,
        "meta_eccentricity": 0.00389773,
        "meta_inclination": 82.9804,
        "meta_ra_of_asc_node": 339.6753,
        "meta_arg_of_pericenter": 24.3748,
        "meta_mean_anomaly": 335.924,
        "meta_ephemeris_type": 0,
        "meta_classification_type": "U",
        "meta_norad_cat_id": 32052,
        "meta_element_set_no": 999,
        "meta_rev_at_epoch": 91670,
        "meta_bstar": 5.3411033e-05,
        "meta_mean_motion_dot": 6.7e-07,
        "meta_mean_motion_ddot": 0,
        "tle_line1": "1 32052U 07038A   25351.66810219  .00000067  00000+0  53411-4 0  9999",
        "tle_line2": "2 32052  82.9804 339.6753 0038977  24.3748 335.9240 13.75149894916703"
      },
      "geometry": {
        "type": "Point",
        "coordinates": [
          155.04345590454628,
          30.934373923211915
        ]
      }
    },
    {
      "type": "Feature",
      "properties": {
        "norad_id": 35635,
        "name": "COSMOS 2454",
        "group": "musson",
        "lat": -5.210460421455711,
        "lon": 163.8538981271697,
        "alt_km": 925.9512528400746,
        "timestamp": "2025-12-18T04:58:34.846114+00:00",
        "meta_object_name": "COSMOS 2454",
        "meta_object_id": "2009-039A",
        "meta_epoch": "2025-12-17T18:41:38.948928",
        "meta_mean_motion": 13.8992925,
        "meta_eccentricity": 0.00203284,
        "meta_inclination": 82.9553,
        "meta_ra_of_asc_node": 164.8248,
        "meta_arg_of_pericenter": 60.2397,
        "meta_mean_anomaly": 312.3344,
        "meta_ephemeris_type": 0,
        "meta_classification_type": "U",
        "meta_norad_cat_id": 35635,
        "meta_element_set_no": 999,
        "meta_rev_at_epoch": 83220,
        "meta_bstar": 5.0708597e-05,
        "meta_mean_motion_dot": 7.8e-07,
        "meta_mean_motion_ddot": 0,
        "tle_line1": "1 35635U 09039A   25351.77892302  .00000078  00000+0  50709-4 0  9996",
        "tle_line2": "2 35635  82.9553 164.8248 0020328  60.2397 312.3344 13.89929250832204"
      },
      "geometry": {
        "type": "Point",
        "coordinates": [
          163.8538981271697,
          -5.210460421455711
        ]
      }
    },
    {
      "type": "Feature",
      "properties": {
        "norad_id": 36519,
        "name": "COSMOS 2463",
        "group": "musson",
        "lat": 35.910934631698595,
        "lon": 27.82811899707734,
        "alt_km": 1005.3841429479899,
        "timestamp": "2025-12-18T04:58:34.846129+00:00",
        "meta_object_name": "COSMOS 2463",
        "meta_object_id": "2010-017A",
        "meta_epoch": "2025-12-17T20:53:33.803232",
        "meta_mean_motion": 13.71649617,
        "meta_eccentricity": 0.003474,
        "meta_inclination": 82.9607,
        "meta_ra_of_asc_node": 22.9421,
        "meta_arg_of_pericenter": 273.2868,
        "meta_mean_anomaly": 260.4471,
        "meta_ephemeris_type": 0,
        "meta_classification_type": "U",
        "meta_norad_cat_id": 36519,
        "meta_element_set_no": 999,
        "meta_rev_at_epoch": 78307,
        "meta_bstar": 6.4142203e-05,
        "meta_mean_motion_dot": 7.3e-07,
        "meta_mean_motion_ddot": 0,
        "tle_line1": "1 36519U 10017A   25351.87053013  .00000073  00000+0  64142-4 0  9996",
        "tle_line2": "2 36519  82.9607  22.9421 0034740 273.2868 260.4471 13.71649617783076"
      },
      "geometry": {
        "type": "Point",
        "coordinates": [
          27.82811899707734,
          35.910934631698595
        ]
      }
    }
  ]
}